ONEWEB-0300             
1 49089U 21075Q   26065.26038152 -.00000393  00000+0 -11272-2 0  9992
2 49089  87.8998  11.0815 0001419  78.4309 281.6979 13.12443525221707
ONEWEB-0301             
1 49090U 21075R   26065.24427384 -.00000199  00000+0 -58885-3 0  9997
2 49090  87.8998  11.0854 0001404  81.0780 279.0507 13.12442874221062
ONEWEB-0302             
1 49091U 21075S   26065.23073892  .00000334  00000+0  89309-3 0  9992
2 49091  87.9007  11.0962 0002145  80.9521 279.1851 13.12441749221040
ONEWEB-0304             
1 49092U 21075T   26065.27484885  .00000198  00000+0  47550-3 0  9995
2 49092  87.9156  26.3042 0001876  78.0823 282.0519 13.17649793220022
ONEWEB-0305             
1 49093U 21075U   26065.26809895 -.00000018  00000+0 -79642-4 0  9998
2 49093  87.9152  26.2845 0001887  69.0777 291.0557 13.17648359220051
ONEWEB-0308             
1 49094U 21075V   26065.30019727  .00000459  00000+0  12411-2 0  9997
2 49094  87.9005  11.0755 0001810  82.2752 277.8582 13.12441674221065
ONEWEB-0309             
1 49095U 21075W   26065.27146994  .00000606  00000+0  15263-2 0  9993
2 49095  87.9145  26.2987 0002342  83.1700 276.9698 13.17654905220021
ONEWEB-0310             
1 49096U 21075X   26065.23919925  .00000008  00000+0 -13012-4 0  9991
2 49096  87.8995  11.1184 0001810  80.8683 279.2650 13.12443052221680
ONEWEB-0311             
1 49097U 21075Y   26064.89855370  .00000004  00000+0 -23095-4 0  9994
2 49097  87.9157  26.3666 0001757  71.2173 288.9149 13.17651307220029
ONEWEB-0312             
1 49098U 21075Z   26064.91372169  .00000060  00000+0  12100-3 0  9993
2 49098  87.9145  26.3826 0002135  73.5463 286.5903 13.17650165220004
ONEWEB-0313             
1 49099U 21075AA  26065.29833636  .00000048  00000+0  91155-4 0  9991
2 49099  87.9147  26.3121 0001860  77.2667 282.8673 13.17648804220040
ONEWEB-0314             
1 49100U 21075AB  26065.26471626 -.00000001  00000+0 -35724-4 0  9999
2 49100  87.9156  26.2816 0002074  72.1618 287.9740 13.17648897220011
ONEWEB-0315             
1 49101U 21075AC  26065.28833777  .00000421  00000+0  11346-2 0  9997
2 49101  87.9003  11.0647 0001614  69.2550 290.8751 13.12442735221674
ONEWEB-0316             
1 49102U 21075AD  26065.27033315  .00000144  00000+0  33233-3 0  9999
2 49102  87.9238 355.9018 0001790  76.2625 283.8707 13.18684926223641
ONEWEB-0317             
1 49103U 21075AE  26065.29173263  .00000436  00000+0  11752-2 0  9994
2 49103  87.9004  11.0862 0002350  94.7903 265.3494 13.12442955221696
ONEWEB-0318             
1 49104U 21075AF  26065.26704609  .00000030  00000+0  43259-4 0  9995
2 49104  87.9252 355.8946 0001679  70.6095 289.5219 13.18685098223601
ONEWEB-0319             
1 49105U 21075AG  26065.27990697  .00000046  00000+0  85883-4 0  9997
2 49105  87.9146  26.3038 0001558  63.9950 296.1342 13.17649483220051
