[{"OBJECT_NAME":"ONEWEB-0300","OBJECT_ID":"2021-075Q","EPOCH":"2026-03-06T06:14:56.963328","MEAN_MOTION":13.12443525,"ECCENTRICITY":0.00014197,"INCLINATION":87.8998,"RA_OF_ASC_NODE":11.0815,"ARG_OF_PERICENTER":78.4309,"MEAN_ANOMALY":281.6979,"EPHEMERIS_TYPE":0,"CLASSIFICATION_TYPE":"U","NORAD_CAT_ID":49089,"ELEMENT_SET_NO":999,"REV_AT_EPOCH":22170,"BSTAR":-0.0011271763,"MEAN_MOTION_DOT":-3.93e-6,"MEAN_MOTION_DDOT":0},{"OBJECT_NAME":"ONEWEB-0301","OBJECT_ID":"2021-075R","EPOCH":"2026-03-06T05:51:45.259776","MEAN_MOTION":13.12442874,"ECCENTRICITY":0.00014046,"INCLINATION":87.8998,"RA_OF_ASC_NODE":11.0854,"ARG_OF_PERICENTER":81.078,"MEAN_ANOMALY":279.0507,"EPHEMERIS_TYPE":0,"CLASSIFICATION_TYPE":"U","NORAD_CAT_ID":49090,"ELEMENT_SET_NO":999,"REV_AT_EPOCH":22106,"BSTAR":-0.00058884833,"MEAN_MOTION_DOT":-1.99e-6,"MEAN_MOTION_DDOT":0},{"OBJECT_NAME":"ONEWEB-0302","OBJECT_ID":"2021-075S","EPOCH":"2026-03-06T05:32:15.842688","MEAN_MOTION":13.12441749,"ECCENTRICITY":0.00021451,"INCLINATION":87.9007,"RA_OF_ASC_NODE":11.0962,"ARG_OF_PERICENTER":80.9521,"MEAN_ANOMALY":279.1851,"EPHEMERIS_TYPE":0,"CLASSIFICATION_TYPE":"U","NORAD_CAT_ID":49091,"ELEMENT_SET_NO":999,"REV_AT_EPOCH":22104,"BSTAR":0.00089308953,"MEAN_MOTION_DOT":3.34e-6,"MEAN_MOTION_DDOT":0},{"OBJECT_NAME":"ONEWEB-0304","OBJECT_ID":"2021-075T","EPOCH":"2026-03-06T06:35:46.940640","MEAN_MOTION":13.17649793,"ECCENTRICITY":0.00018764,"INCLINATION":87.9156,"RA_OF_ASC_NODE":26.3042,"ARG_OF_PERICENTER":78.0823,"MEAN_ANOMALY":282.0519,"EPHEMERIS_TYPE":0,"CLASSIFICATION_TYPE":"U","NORAD_CAT_ID":49092,"ELEMENT_SET_NO":999,"REV_AT_EPOCH":22002,"BSTAR":0.00047550385,"MEAN_MOTION_DOT":1.98e-6,"MEAN_MOTION_DDOT":0},{"OBJECT_NAME":"ONEWEB-0305","OBJECT_ID":"2021-075U","EPOCH":"2026-03-06T06:26:03.749280","MEAN_MOTION":13.17648359,"ECCENTRICITY":0.00018877,"INCLINATION":87.9152,"RA_OF_ASC_NODE":26.2845,"ARG_OF_PERICENTER":69.0777,"MEAN_ANOMALY":291.0557,"EPHEMERIS_TYPE":0,"CLASSIFICATION_TYPE":"U","NORAD_CAT_ID":49093,"ELEMENT_SET_NO":999,"REV_AT_EPOCH":22005,"BSTAR":-7.96419e-5,"MEAN_MOTION_DOT":-1.8e-7,"MEAN_MOTION_DDOT":0},{"OBJECT_NAME":"ONEWEB-0308","OBJECT_ID":"2021-075V","EPOCH":"2026-03-06T07:12:17.044128","MEAN_MOTION":13.12441674,"ECCENTRICITY":0.00018108,"INCLINATION":87.9005,"RA_OF_ASC_NODE":11.0755,"ARG_OF_PERICENTER":82.2752,"MEAN_ANOMALY":277.8582,"EPHEMERIS_TYPE":0,"CLASSIFICATION_TYPE":"U","NORAD_CAT_ID":49094,"ELEMENT_SET_NO":999,"REV_AT_EPOCH":22106,"BSTAR":0.0012411334,"MEAN_MOTION_DOT":4.59e-6,"MEAN_MOTION_DDOT":0},{"OBJECT_NAME":"ONEWEB-0309","OBJECT_ID":"2021-075W","EPOCH":"2026-03-06T06:30:55.002816","MEAN_MOTION":13.17654905,"ECCENTRICITY":0.00023428,"INCLINATION":87.9145,"RA_OF_ASC_NODE":26.2987,"ARG_OF_PERICENTER":83.17,"MEAN_ANOMALY":276.9698,"EPHEMERIS_TYPE":0,"CLASSIFICATION_TYPE":"U","NORAD_CAT_ID":49095,"ELEMENT_SET_NO":999,"REV_AT_EPOCH":22002,"BSTAR":0.0015262625,"MEAN_MOTION_DOT":6.06e-6,"MEAN_MOTION_DDOT":0},{"OBJECT_NAME":"ONEWEB-0310","OBJECT_ID":"2021-075X","EPOCH":"2026-03-06T05:44:26.815200","MEAN_MOTION":13.12443052,"ECCENTRICITY":0.00018106,"INCLINATION":87.8995,"RA_OF_ASC_NODE":11.1184,"ARG_OF_PERICENTER":80.8683,"MEAN_ANOMALY":279.265,"EPHEMERIS_TYPE":0,"CLASSIFICATION_TYPE":"U","NORAD_CAT_ID":49096,"ELEMENT_SET_NO":999,"REV_AT_EPOCH":22168,"BSTAR":-1.301234e-5,"MEAN_MOTION_DOT":8.0e-8,"MEAN_MOTION_DDOT":0},{"OBJECT_NAME":"ONEWEB-0311","OBJECT_ID":"2021-075Y","EPOCH":"2026-03-05T21:33:55.039680","MEAN_MOTION":13.17651307,"ECCENTRICITY":0.00017573,"INCLINATION":87.9157,"RA_OF_ASC_NODE":26.3666,"ARG_OF_PERICENTER":71.2173,"MEAN_ANOMALY":288.9149,"EPHEMERIS_TYPE":0,"CLASSIFICATION_TYPE":"U","NORAD_CAT_ID":49097,"ELEMENT_SET_NO":999,"REV_AT_EPOCH":22002,"BSTAR":-2.3094741e-5,"MEAN_MOTION_DOT":4.0e-8,"MEAN_MOTION_DDOT":0},{"OBJECT_NAME":"ONEWEB-0312","OBJECT_ID":"2021-075Z","EPOCH":"2026-03-05T21:55:45.554016","MEAN_MOTION":13.17650165,"ECCENTRICITY":0.00021351,"INCLINATION":87.9145,"RA_OF_ASC_NODE":26.3826,"ARG_OF_PERICENTER":73.5463,"MEAN_ANOMALY":286.5903,"EPHEMERIS_TYPE":0,"CLASSIFICATION_TYPE":"U","NORAD_CAT_ID":49098,"ELEMENT_SET_NO":999,"REV_AT_EPOCH":22000,"BSTAR":0.0001210045,"MEAN_MOTION_DOT":6.0e-7,"MEAN_MOTION_DDOT":0},{"OBJECT_NAME":"ONEWEB-0313","OBJECT_ID":"2021-075AA","EPOCH":"2026-03-06T07:09:36.261504","MEAN_MOTION":13.17648804,"ECCENTRICITY":0.00018606,"INCLINATION":87.9147,"RA_OF_ASC_NODE":26.3121,"ARG_OF_PERICENTER":77.2667,"MEAN_ANOMALY":282.8673,"EPHEMERIS_TYPE":0,"CLASSIFICATION_TYPE":"U","NORAD_CAT_ID":49099,"ELEMENT_SET_NO":999,"REV_AT_EPOCH":22004,"BSTAR":9.1154958e-5,"MEAN_MOTION_DOT":4.8e-7,"MEAN_MOTION_DDOT":0},{"OBJECT_NAME":"ONEWEB-0314","OBJECT_ID":"2021-075AB","EPOCH":"2026-03-06T06:21:11.484864","MEAN_MOTION":13.17648897,"ECCENTRICITY":0.00020745,"INCLINATION":87.9156,"RA_OF_ASC_NODE":26.2816,"ARG_OF_PERICENTER":72.1618,"MEAN_ANOMALY":287.974,"EPHEMERIS_TYPE":0,"CLASSIFICATION_TYPE":"U","NORAD_CAT_ID":49100,"ELEMENT_SET_NO":999,"REV_AT_EPOCH":22001,"BSTAR":-3.5723584e-5,"MEAN_MOTION_DOT":-1.0e-8,"MEAN_MOTION_DDOT":0},{"OBJECT_NAME":"ONEWEB-0315","OBJECT_ID":"2021-075AC","EPOCH":"2026-03-06T06:55:12.383328","MEAN_MOTION":13.12442735,"ECCENTRICITY":0.00016141,"INCLINATION":87.9003,"RA_OF_ASC_NODE":11.0647,"ARG_OF_PERICENTER":69.255,"MEAN_ANOMALY":290.8751,"EPHEMERIS_TYPE":0,"CLASSIFICATION_TYPE":"U","NORAD_CAT_ID":49101,"ELEMENT_SET_NO":999,"REV_AT_EPOCH":22167,"BSTAR":0.0011346132,"MEAN_MOTION_DOT":4.21e-6,"MEAN_MOTION_DDOT":0},{"OBJECT_NAME":"ONEWEB-0316","OBJECT_ID":"2021-075AD","EPOCH":"2026-03-06T06:29:16.784160","MEAN_MOTION":13.18684926,"ECCENTRICITY":0.000179,"INCLINATION":87.9238,"RA_OF_ASC_NODE":355.9018,"ARG_OF_PERICENTER":76.2625,"MEAN_ANOMALY":283.8707,"EPHEMERIS_TYPE":0,"CLASSIFICATION_TYPE":"U","NORAD_CAT_ID":49102,"ELEMENT_SET_NO":999,"REV_AT_EPOCH":22364,"BSTAR":0.00033233346,"MEAN_MOTION_DOT":1.44e-6,"MEAN_MOTION_DDOT":0},{"OBJECT_NAME":"ONEWEB-0317","OBJECT_ID":"2021-075AE","EPOCH":"2026-03-06T07:00:05.699232","MEAN_MOTION":13.12442955,"ECCENTRICITY":0.00023501,"INCLINATION":87.9004,"RA_OF_ASC_NODE":11.0862,"ARG_OF_PERICENTER":94.7903,"MEAN_ANOMALY":265.3494,"EPHEMERIS_TYPE":0,"CLASSIFICATION_TYPE":"U","NORAD_CAT_ID":49103,"ELEMENT_SET_NO":999,"REV_AT_EPOCH":22169,"BSTAR":0.0011752022,"MEAN_MOTION_DOT":4.36e-6,"MEAN_MOTION_DDOT":0},{"OBJECT_NAME":"ONEWEB-0318","OBJECT_ID":"2021-075AF","EPOCH":"2026-03-06T06:24:32.782176","MEAN_MOTION":13.18685098,"ECCENTRICITY":0.0001679,"INCLINATION":87.9252,"RA_OF_ASC_NODE":355.8946,"ARG_OF_PERICENTER":70.6095,"MEAN_ANOMALY":289.5219,"EPHEMERIS_TYPE":0,"CLASSIFICATION_TYPE":"U","NORAD_CAT_ID":49104,"ELEMENT_SET_NO":999,"REV_AT_EPOCH":22360,"BSTAR":4.3259244e-5,"MEAN_MOTION_DOT":3.0e-7,"MEAN_MOTION_DDOT":0},{"OBJECT_NAME":"ONEWEB-0319","OBJECT_ID":"2021-075AG","EPOCH":"2026-03-06T06:43:03.962208","MEAN_MOTION":13.17649483,"ECCENTRICITY":0.00015586,"INCLINATION":87.9146,"RA_OF_ASC_NODE":26.3038,"ARG_OF_PERICENTER":63.995,"MEAN_ANOMALY":296.1342,"EPHEMERIS_TYPE":0,"CLASSIFICATION_TYPE":"U","NORAD_CAT_ID":49105,"ELEMENT_SET_NO":999,"REV_AT_EPOCH":22005,"BSTAR":8.5882804e-5,"MEAN_MOTION_DOT":4.6e-7,"MEAN_MOTION_DDOT":0}]
